STARLINK-31572          
1 59333U 24057P   26068.39908259 -.00001927  00000+0 -60542-4 0  9999
2 59333  42.9963 200.0400 0000332 181.9274 178.1577 15.27578400109661
FLOCK 4G-23             
1 62647U 25009AQ  26068.71663397  .00012440  00000+0  46816-3 0  9993
2 62647  97.3979 150.9478 0000905   7.2707 352.8545 15.27262579 63728
